{
  "type": "FeatureCollection",
  "features": [
    {
      "type": "Feature",
      "properties": {
        "norad_id": 35073,
        "name": "COSMOS 2251 DEB",
        "group": "cosmos-2251-debris",
        "lat": -55.626602941779474,
        "lon": -72.05251926235414,
        "alt_km": 573.080706093243,
        "timestamp": "2025-12-21T11:31:43.255470+00:00",
        "meta_object_name": "COSMOS 2251 DEB",
        "meta_object_id": "1993-036AJC",
        "meta_epoch": "2025-12-21T03:47:40.658208",
        "meta_mean_motion": 15.01173431,
        "meta_eccentricity": 0.0011355,
        "meta_inclination": 74.0014,
        "meta_ra_of_asc_node": 313.4044,
        "meta_arg_of_pericenter": 55.2399,
        "meta_mean_anomaly": 304.9855,
        "meta_ephemeris_type": 0,
        "meta_classification_type": "U",
        "meta_norad_cat_id": 35073,
        "meta_element_set_no": 999,
        "meta_rev_at_epoch": 67605,
        "meta_bstar": 0.0019432,
        "meta_mean_motion_dot": 0.00025009,
        "meta_mean_motion_ddot": 0,
        "tle_line1": "1 35073U 93036AJC 25355.15810947  .00025009  00000+0  19432-2 0  9990",
        "tle_line2": "2 35073  74.0014 313.4044 0011355  55.2399 304.9855 15.01173431676057"
      },
      "geometry": {
        "type": "Point",
        "coordinates": [
          -72.05251926235414,
          -55.626602941779474
        ]
      }
    },
    {
      "type": "Feature",
      "properties": {
        "norad_id": 35284,
        "name": "COSMOS 2251 DEB",
        "group": "cosmos-2251-debris",
        "lat": -37.849095162191794,
        "lon": 81.17178246231488,
        "alt_km": 772.9736375175953,
        "timestamp": "2025-12-21T11:31:43.255481+00:00",
        "meta_object_name": "COSMOS 2251 DEB",
        "meta_object_id": "1993-036AJN",
        "meta_epoch": "2025-12-20T11:57:49.053888",
        "meta_mean_motion": 14.38325797,
        "meta_eccentricity": 0.00170776,
        "meta_inclination": 74.0488,
        "meta_ra_of_asc_node": 250.1381,
        "meta_arg_of_pericenter": 325.4276,
        "meta_mean_anomaly": 212.2402,
        "meta_ephemeris_type": 0,
        "meta_classification_type": "U",
        "meta_norad_cat_id": 35284,
        "meta_element_set_no": 999,
        "meta_rev_at_epoch": 65637,
        "meta_bstar": 0.00012056337,
        "meta_mean_motion_dot": 3.41e-06,
        "meta_mean_motion_ddot": 0,
        "tle_line1": "1 35284U 93036AJN 25354.49848442  .00000341  00000+0  12056-3 0  9999",
        "tle_line2": "2 35284  74.0488 250.1381 0017077 325.4276 212.2402 14.38325797656375"
      },
      "geometry": {
        "type": "Point",
        "coordinates": [
          81.17178246231488,
          -37.849095162191794
        ]
      }
    },
    {
      "type": "Feature",
      "properties": {
        "norad_id": 35287,
        "name": "COSMOS 2251 DEB",
        "group": "cosmos-2251-debris",
        "lat": -24.7601147664726,
        "lon": -107.51373685546062,
        "alt_km": 763.6877723751104,
        "timestamp": "2025-12-21T11:31:43.255492+00:00",
        "meta_object_name": "COSMOS 2251 DEB",
        "meta_object_id": "1993-036AJR",
        "meta_epoch": "2025-12-20T04:35:49.901856",
        "meta_mean_motion": 14.36382318,
        "meta_eccentricity": 0.00179029,
        "meta_inclination": 74.0304,
        "meta_ra_of_asc_node": 262.443,
        "meta_arg_of_pericenter": 357.4612,
        "meta_mean_anomaly": 155.1541,
        "meta_ephemeris_type": 0,
        "meta_classification_type": "U",
        "meta_norad_cat_id": 35287,
        "meta_element_set_no": 999,
        "meta_rev_at_epoch": 86999,
        "meta_bstar": 9.9147668e-05,
        "meta_mean_motion_dot": 2.64e-06,
        "meta_mean_motion_ddot": 0,
        "tle_line1": "1 35287U 93036AJR 25354.19154979  .00000264  00000+0  99148-4 0  9996",
        "tle_line2": "2 35287  74.0304 262.4430 0017902 357.4612 155.1541 14.36382318869995"
      },
      "geometry": {
        "type": "Point",
        "coordinates": [
          -107.51373685546062,
          -24.7601147664726
        ]
      }
    },
    {
      "type": "Feature",
      "properties": {
        "norad_id": 35288,
        "name": "COSMOS 2251 DEB",
        "group": "cosmos-2251-debris",
        "lat": -37.404530451065305,
        "lon": -14.454979570051742,
        "alt_km": 681.5612502912645,
        "timestamp": "2025-12-21T11:31:43.255502+00:00",
        "meta_object_name": "COSMOS 2251 DEB",
        "meta_object_id": "1993-036AJS",
        "meta_epoch": "2025-12-18T09:59:01.456512",
        "meta_mean_motion": 14.6551495,
        "meta_eccentricity": 0.00391709,
        "meta_inclination": 73.9507,
        "meta_ra_of_asc_node": 4.189,
        "meta_arg_of_pericenter": 236.8984,
        "meta_mean_anomaly": 122.8422,
        "meta_ephemeris_type": 0,
        "meta_classification_type": "U",
        "meta_norad_cat_id": 35288,
        "meta_element_set_no": 999,
        "meta_rev_at_epoch": 87961,
        "meta_bstar": 0.00084957845,
        "meta_mean_motion_dot": 4.628e-05,
        "meta_mean_motion_ddot": 0,
        "tle_line1": "1 35288U 93036AJS 25352.41598908  .00004628  00000+0  84958-3 0  9994",
        "tle_line2": "2 35288  73.9507   4.1890 0039170 236.8984 122.8422 14.65514950879613"
      },
      "geometry": {
        "type": "Point",
        "coordinates": [
          -14.454979570051742,
          -37.404530451065305
        ]
      }
    },
    {
      "type": "Feature",
      "properties": {
        "norad_id": 35290,
        "name": "COSMOS 2251 DEB",
        "group": "cosmos-2251-debris",
        "lat": -8.718734459888692,
        "lon": 39.65081344472406,
        "alt_km": 632.2788542783383,
        "timestamp": "2025-12-21T11:31:43.255512+00:00",
        "meta_object_name": "COSMOS 2251 DEB",
        "meta_object_id": "1993-036AJU",
        "meta_epoch": "2025-12-20T03:08:10.287168",
        "meta_mean_motion": 14.80565596,
        "meta_eccentricity": 0.00016036,
        "meta_inclination": 74.0049,
        "meta_ra_of_asc_node": 44.8368,
        "meta_arg_of_pericenter": 190.188,
        "meta_mean_anomaly": 169.9265,
        "meta_ephemeris_type": 0,
        "meta_classification_type": "U",
        "meta_norad_cat_id": 35290,
        "meta_element_set_no": 999,
        "meta_rev_at_epoch": 88067,
        "meta_bstar": 0.0010027753,
        "meta_mean_motion_dot": 7.664e-05,
        "meta_mean_motion_ddot": 0,
        "tle_line1": "1 35290U 93036AJU 25354.13067462  .00007664  00000+0  10028-2 0  9993",
        "tle_line2": "2 35290  74.0049  44.8368 0001603 190.1880 169.9265 14.80565596880671"
      },
      "geometry": {
        "type": "Point",
        "coordinates": [
          39.65081344472406,
          -8.718734459888692
        ]
      }
    },
    {
      "type": "Feature",
      "properties": {
        "norad_id": 35432,
        "name": "COSMOS 2251 DEB",
        "group": "cosmos-2251-debris",
        "lat": 39.211121608964255,
        "lon": 163.58536625828063,
        "alt_km": 498.51964992255216,
        "timestamp": "2025-12-21T11:31:43.255523+00:00",
        "meta_object_name": "COSMOS 2251 DEB",
        "meta_object_id": "1993-036AKA",
        "meta_epoch": "2025-12-20T17:35:33.735840",
        "meta_mean_motion": 15.24099231,
        "meta_eccentricity": 0.0012488,
        "meta_inclination": 74.0209,
        "meta_ra_of_asc_node": 358.6833,
        "meta_arg_of_pericenter": 327.8033,
        "meta_mean_anomaly": 32.2402,
        "meta_ephemeris_type": 0,
        "meta_classification_type": "U",
        "meta_norad_cat_id": 35432,
        "meta_element_set_no": 999,
        "meta_rev_at_epoch": 87625,
        "meta_bstar": 0.0017866286,
        "meta_mean_motion_dot": 0.00043728,
        "meta_mean_motion_ddot": 0,
        "tle_line1": "1 35432U 93036AKA 25354.73302935  .00043728  00000+0  17866-2 0  9992",
        "tle_line2": "2 35432  74.0209 358.6833 0012488 327.8033  32.2402 15.24099231876253"
      },
      "geometry": {
        "type": "Point",
        "coordinates": [
          163.58536625828063,
          39.211121608964255
        ]
      }
    },
    {
      "type": "Feature",
      "properties": {
        "norad_id": 35433,
        "name": "COSMOS 2251 DEB",
        "group": "cosmos-2251-debris",
        "lat": 39.4141221418602,
        "lon": -23.95420703045481,
        "alt_km": 756.1398748074062,
        "timestamp": "2025-12-21T11:31:43.255533+00:00",
        "meta_object_name": "COSMOS 2251 DEB",
        "meta_object_id": "1993-036AKB",
        "meta_epoch": "2025-12-10T18:27:52.031808",
        "meta_mean_motion": 14.34742553,
        "meta_eccentricity": 0.00254013,
        "meta_inclination": 74.0339,
        "meta_ra_of_asc_node": 342.0559,
        "meta_arg_of_pericenter": 37.4572,
        "meta_mean_anomaly": 142.4072,
        "meta_ephemeris_type": 0,
        "meta_classification_type": "U",
        "meta_norad_cat_id": 35433,
        "meta_element_set_no": 999,
        "meta_rev_at_epoch": 86552,
        "meta_bstar": 0.00041847558,
        "meta_mean_motion_dot": 1.164e-05,
        "meta_mean_motion_ddot": 0,
        "tle_line1": "1 35433U 93036AKB 25344.76935222  .00001164  00000+0  41848-3 0  9992",
        "tle_line2": "2 35433  74.0339 342.0559 0025401  37.4572 142.4072 14.34742553865528"
      },
      "geometry": {
        "type": "Point",
        "coordinates": [
          -23.95420703045481,
          39.4141221418602
        ]
      }
    }
  ]
}